IRIDIUM 63              
1 25286U 98021B   25365.50118852  .00000759  00000+0  25091-3 0  9994
2 25286  86.3982 359.3396 0002208  83.1458 276.9991 14.36753514452171
IRIDIUM 69              
1 25319U 98026A   25365.46091227  .00000790  00000+0  23867-3 0  9991
2 25319  86.3969  12.0217 0004600  91.6208 268.5519 14.41236036451479
IRIDIUM 71              
1 25320U 98026B   25365.44641137  .00000604  00000+0  18053-3 0  9997
2 25320  86.3971   6.6990 0003597 122.6354 237.5194 14.41331567452002
IRIDIUM 73              
1 25344U 98032C   25365.38581913  .00001289  00000+0  31411-3 0  9991
2 25344  86.4420 323.0643 0002867  77.6140 282.5387 14.52020234459177
IRIDIUM 82              
1 25467U 98051A   25365.46639117  .00060153  00000+0  10601-2 0  9999
2 25467  86.3596  11.6676 0056142 259.0518 100.4421 15.48397545454295
